{
  "type": "FeatureCollection",
  "features": [
    {
      "type": "Feature",
      "properties": {
        "field_id": "F001",
        "field_name": "North Field",
        "commodity": "Wheat",
        "latitude": 41.97,
        "longitude": -93.47,
        "area_acres": 179,
        "mean_ndvi": 0.454,
        "ndvi_2023": 0.466,
        "ndvi_2024": 0.432,
        "ndvi_2025": 0.464
      },
      "geometry": null
    },
    {
      "type": "Feature",
      "properties": {
        "field_id": "F002",
        "field_name": "South Field",
        "commodity": "Soybeans",
        "latitude": 41.89,
        "longitude": -93.75,
        "area_acres": 138,
        "mean_ndvi": 0.393,
        "ndvi_2023": 0.409,
        "ndvi_2024": 0.415,
        "ndvi_2025": 0.357
      },
      "geometry": null
    },
    {
      "type": "Feature",
      "properties": {
        "field_id": "F003",
        "field_name": "East Field",
        "commodity": "Corn",
        "latitude": 41.91,
        "longitude": -93.69,
        "area_acres": 240,
        "mean_ndvi": 0.521,
        "ndvi_2023": 0.548,
        "ndvi_2024": 0.499,
        "ndvi_2025": 0.515
      },
      "geometry": null
    },
    {
      "type": "Feature",
      "properties": {
        "field_id": "F004",
        "field_name": "West Field",
        "commodity": "Alfalfa",
        "latitude": 41.91,
        "longitude": -93.71,
        "area_acres": 64,
        "mean_ndvi": 0.689,
        "ndvi_2023": 0.678,
        "ndvi_2024": 0.676,
        "ndvi_2025": 0.712
      },
      "geometry": null
    },
    {
      "type": "Feature",
      "properties": {
        "field_id": "F005",
        "field_name": "Valley Plot",
        "commodity": "Corn",
        "latitude": 41.85,
        "longitude": -93.73,
        "area_acres": 200,
        "mean_ndvi": 0.501,
        "ndvi_2023": 0.486,
        "ndvi_2024": 0.481,
        "ndvi_2025": 0.536
      },
      "geometry": null
    },
    {
      "type": "Feature",
      "properties": {
        "field_id": "F006",
        "field_name": "Hilltop Field",
        "commodity": "Soybeans",
        "latitude": 41.88,
        "longitude": -93.69,
        "area_acres": 145,
        "mean_ndvi": 0.425,
        "ndvi_2023": 0.429,
        "ndvi_2024": 0.424,
        "ndvi_2025": 0.422
      },
      "geometry": null
    },
    {
      "type": "Feature",
      "properties": {
        "field_id": "F007",
        "field_name": "Meadow Pasture",
        "commodity": "Soybeans",
        "latitude": 41.87,
        "longitude": -93.49,
        "area_acres": 177,
        "mean_ndvi": 0.403,
        "ndvi_2023": 0.369,
        "ndvi_2024": 0.424,
        "ndvi_2025": 0.416
      },
      "geometry": null
    },
    {
      "type": "Feature",
      "properties": {
        "field_id": "F008",
        "field_name": "Cropland A",
        "commodity": "Corn",
        "latitude": 42.03,
        "longitude": -93.65,
        "area_acres": 145,
        "mean_ndvi": 0.519,
        "ndvi_2023": 0.5,
        "ndvi_2024": 0.539,
        "ndvi_2025": 0.516
      },
      "geometry": null
    },
    {
      "type": "Feature",
      "properties": {
        "field_id": "F009",
        "field_name": "Cropland B",
        "commodity": "Soybeans",
        "latitude": 41.82,
        "longitude": -93.71,
        "area_acres": 221,
        "mean_ndvi": 0.398,
        "ndvi_2023": 0.426,
        "ndvi_2024": 0.391,
        "ndvi_2025": 0.376
      },
      "geometry": null
    },
    {
      "type": "Feature",
      "properties": {
        "field_id": "F010",
        "field_name": "Pasture North",
        "commodity": "Wheat",
        "latitude": 41.96,
        "longitude": -93.49,
        "area_acres": 236,
        "mean_ndvi": 0.453,
        "ndvi_2023": 0.449,
        "ndvi_2024": 0.441,
        "ndvi_2025": 0.468
      },
      "geometry": null
    },
    {
      "type": "Feature",
      "properties": {
        "field_id": "F011",
        "field_name": "Ridge Field",
        "commodity": "Alfalfa",
        "latitude": 41.82,
        "longitude": -93.7,
        "area_acres": 161,
        "mean_ndvi": 0.649,
        "ndvi_2023": 0.658,
        "ndvi_2024": 0.64,
        "ndvi_2025": 0.649
      },
      "geometry": null
    },
    {
      "type": "Feature",
      "properties": {
        "field_id": "F012",
        "field_name": "Bottomland",
        "commodity": "Alfalfa",
        "latitude": 41.8,
        "longitude": -93.48,
        "area_acres": 133,
        "mean_ndvi": 0.634,
        "ndvi_2023": 0.658,
        "ndvi_2024": 0.654,
        "ndvi_2025": 0.59
      },
      "geometry": null
    },
    {
      "type": "Feature",
      "properties": {
        "field_id": "F013",
        "field_name": "Oak Grove",
        "commodity": "Corn",
        "latitude": 41.97,
        "longitude": -93.53,
        "area_acres": 177,
        "mean_ndvi": 0.485,
        "ndvi_2023": 0.468,
        "ndvi_2024": 0.517,
        "ndvi_2025": 0.469
      },
      "geometry": null
    },
    {
      "type": "Feature",
      "properties": {
        "field_id": "F014",
        "field_name": "Maple Creek",
        "commodity": "Wheat",
        "latitude": 41.83,
        "longitude": -93.74,
        "area_acres": 98,
        "mean_ndvi": 0.398,
        "ndvi_2023": 0.398,
        "ndvi_2024": 0.429,
        "ndvi_2025": 0.368
      },
      "geometry": null
    },
    {
      "type": "Feature",
      "properties": {
        "field_id": "F015",
        "field_name": "Prairie View",
        "commodity": "Soybeans",
        "latitude": 41.8,
        "longitude": -93.58,
        "area_acres": 103,
        "mean_ndvi": 0.404,
        "ndvi_2023": 0.424,
        "ndvi_2024": 0.378,
        "ndvi_2025": 0.41
      },
      "geometry": null
    },
    {
      "type": "Feature",
      "properties": {
        "field_id": "F016",
        "field_name": "Spring Hill",
        "commodity": "Alfalfa",
        "latitude": 41.83,
        "longitude": -93.57,
        "area_acres": 109,
        "mean_ndvi": 0.663,
        "ndvi_2023": 0.642,
        "ndvi_2024": 0.652,
        "ndvi_2025": 0.696
      },
      "geometry": null
    },
    {
      "type": "Feature",
      "properties": {
        "field_id": "F017",
        "field_name": "Elm Lane",
        "commodity": "Corn",
        "latitude": 42.0,
        "longitude": -93.49,
        "area_acres": 98,
        "mean_ndvi": 0.482,
        "ndvi_2023": 0.467,
        "ndvi_2024": 0.504,
        "ndvi_2025": 0.474
      },
      "geometry": null
    },
    {
      "type": "Feature",
      "properties": {
        "field_id": "F018",
        "field_name": "Cedar Rapids",
        "commodity": "Alfalfa",
        "latitude": 42.04,
        "longitude": -93.6,
        "area_acres": 207,
        "mean_ndvi": 0.671,
        "ndvi_2023": 0.679,
        "ndvi_2024": 0.676,
        "ndvi_2025": 0.659
      },
      "geometry": null
    },
    {
      "type": "Feature",
      "properties": {
        "field_id": "F019",
        "field_name": "Pine Haven",
        "commodity": "Soybeans",
        "latitude": 41.8,
        "longitude": -93.47,
        "area_acres": 178,
        "mean_ndvi": 0.391,
        "ndvi_2023": 0.359,
        "ndvi_2024": 0.399,
        "ndvi_2025": 0.414
      },
      "geometry": null
    },
    {
      "type": "Feature",
      "properties": {
        "field_id": "F020",
        "field_name": "Birch Meadow",
        "commodity": "Soybeans",
        "latitude": 41.89,
        "longitude": -93.72,
        "area_acres": 225,
        "mean_ndvi": 0.39,
        "ndvi_2023": 0.368,
        "ndvi_2024": 0.392,
        "ndvi_2025": 0.409
      },
      "geometry": null
    },
    {
      "type": "Feature",
      "properties": {
        "field_id": "F021",
        "field_name": "Willow Creek",
        "commodity": "Corn",
        "latitude": 42.03,
        "longitude": -93.49,
        "area_acres": 209,
        "mean_ndvi": 0.497,
        "ndvi_2023": 0.49,
        "ndvi_2024": 0.511,
        "ndvi_2025": 0.49
      },
      "geometry": null
    },
    {
      "type": "Feature",
      "properties": {
        "field_id": "F022",
        "field_name": "Maple Grove",
        "commodity": "Alfalfa",
        "latitude": 41.78,
        "longitude": -93.55,
        "area_acres": 130,
        "mean_ndvi": 0.633,
        "ndvi_2023": 0.596,
        "ndvi_2024": 0.648,
        "ndvi_2025": 0.654
      },
      "geometry": null
    },
    {
      "type": "Feature",
      "properties": {
        "field_id": "F023",
        "field_name": "Red Oak",
        "commodity": "Soybeans",
        "latitude": 41.92,
        "longitude": -93.53,
        "area_acres": 85,
        "mean_ndvi": 0.412,
        "ndvi_2023": 0.394,
        "ndvi_2024": 0.41,
        "ndvi_2025": 0.43
      },
      "geometry": null
    },
    {
      "type": "Feature",
      "properties": {
        "field_id": "F024",
        "field_name": "Silver Lake",
        "commodity": "Soybeans",
        "latitude": 41.77,
        "longitude": -93.46,
        "area_acres": 196,
        "mean_ndvi": 0.389,
        "ndvi_2023": 0.393,
        "ndvi_2024": 0.412,
        "ndvi_2025": 0.362
      },
      "geometry": null
    },
    {
      "type": "Feature",
      "properties": {
        "field_id": "F025",
        "field_name": "Hickory Hill",
        "commodity": "Alfalfa",
        "latitude": 41.9,
        "longitude": -93.73,
        "area_acres": 171,
        "mean_ndvi": 0.651,
        "ndvi_2023": 0.626,
        "ndvi_2024": 0.648,
        "ndvi_2025": 0.68
      },
      "geometry": null
    },
    {
      "type": "Feature",
      "properties": {
        "field_id": "F026",
        "field_name": "Walnut Farm",
        "commodity": "Soybeans",
        "latitude": 41.78,
        "longitude": -93.45,
        "area_acres": 158,
        "mean_ndvi": 0.386,
        "ndvi_2023": 0.409,
        "ndvi_2024": 0.374,
        "ndvi_2025": 0.376
      },
      "geometry": null
    },
    {
      "type": "Feature",
      "properties": {
        "field_id": "F027",
        "field_name": "Chestnut Field",
        "commodity": "Corn",
        "latitude": 41.92,
        "longitude": -93.53,
        "area_acres": 249,
        "mean_ndvi": 0.523,
        "ndvi_2023": 0.526,
        "ndvi_2024": 0.509,
        "ndvi_2025": 0.533
      },
      "geometry": null
    },
    {
      "type": "Feature",
      "properties": {
        "field_id": "F028",
        "field_name": "Sycamore Plot",
        "commodity": "Corn",
        "latitude": 42.03,
        "longitude": -93.67,
        "area_acres": 196,
        "mean_ndvi": 0.529,
        "ndvi_2023": 0.532,
        "ndvi_2024": 0.518,
        "ndvi_2025": 0.536
      },
      "geometry": null
    },
    {
      "type": "Feature",
      "properties": {
        "field_id": "F029",
        "field_name": "Cottonwood",
        "commodity": "Soybeans",
        "latitude": 41.81,
        "longitude": -93.61,
        "area_acres": 235,
        "mean_ndvi": 0.409,
        "ndvi_2023": 0.405,
        "ndvi_2024": 0.39,
        "ndvi_2025": 0.431
      },
      "geometry": null
    },
    {
      "type": "Feature",
      "properties": {
        "field_id": "F030",
        "field_name": "Aspen Ridge",
        "commodity": "Alfalfa",
        "latitude": 41.93,
        "longitude": -93.62,
        "area_acres": 105,
        "mean_ndvi": 0.644,
        "ndvi_2023": 0.633,
        "ndvi_2024": 0.653,
        "ndvi_2025": 0.647
      },
      "geometry": null
    },
    {
      "type": "Feature",
      "properties": {
        "field_id": "F031",
        "field_name": "River Bend",
        "commodity": "Alfalfa",
        "latitude": 41.83,
        "longitude": -93.73,
        "area_acres": 55,
        "mean_ndvi": 0.646,
        "ndvi_2023": 0.638,
        "ndvi_2024": 0.676,
        "ndvi_2025": 0.624
      },
      "geometry": null
    },
    {
      "type": "Feature",
      "properties": {
        "field_id": "F032",
        "field_name": "Hillcrest",
        "commodity": "Wheat",
        "latitude": 41.94,
        "longitude": -93.64,
        "area_acres": 121,
        "mean_ndvi": 0.436,
        "ndvi_2023": 0.432,
        "ndvi_2024": 0.441,
        "ndvi_2025": 0.436
      },
      "geometry": null
    },
    {
      "type": "Feature",
      "properties": {
        "field_id": "F033",
        "field_name": "Farmers Fields",
        "commodity": "Wheat",
        "latitude": 41.99,
        "longitude": -93.48,
        "area_acres": 241,
        "mean_ndvi": 0.461,
        "ndvi_2023": 0.515,
        "ndvi_2024": 0.42,
        "ndvi_2025": 0.448
      },
      "geometry": null
    },
    {
      "type": "Feature",
      "properties": {
        "field_id": "F034",
        "field_name": "Green Pasture",
        "commodity": "Soybeans",
        "latitude": 42.0,
        "longitude": -93.52,
        "area_acres": 133,
        "mean_ndvi": 0.427,
        "ndvi_2023": 0.422,
        "ndvi_2024": 0.432,
        "ndvi_2025": 0.427
      },
      "geometry": null
    },
    {
      "type": "Feature",
      "properties": {
        "field_id": "F035",
        "field_name": "Sunny Meadow",
        "commodity": "Corn",
        "latitude": 41.95,
        "longitude": -93.7,
        "area_acres": 171,
        "mean_ndvi": 0.522,
        "ndvi_2023": 0.542,
        "ndvi_2024": 0.52,
        "ndvi_2025": 0.504
      },
      "geometry": null
    },
    {
      "type": "Feature",
      "properties": {
        "field_id": "F036",
        "field_name": "Golden Fields",
        "commodity": "Soybeans",
        "latitude": 41.96,
        "longitude": -93.6,
        "area_acres": 156,
        "mean_ndvi": 0.395,
        "ndvi_2023": 0.371,
        "ndvi_2024": 0.408,
        "ndvi_2025": 0.406
      },
      "geometry": null
    },
    {
      "type": "Feature",
      "properties": {
        "field_id": "F037",
        "field_name": "Old Orchard",
        "commodity": "Corn",
        "latitude": 41.96,
        "longitude": -93.48,
        "area_acres": 156,
        "mean_ndvi": 0.515,
        "ndvi_2023": 0.491,
        "ndvi_2024": 0.512,
        "ndvi_2025": 0.54
      },
      "geometry": null
    },
    {
      "type": "Feature",
      "properties": {
        "field_id": "F038",
        "field_name": "Wildflower",
        "commodity": "Wheat",
        "latitude": 41.95,
        "longitude": -93.51,
        "area_acres": 158,
        "mean_ndvi": 0.458,
        "ndvi_2023": 0.426,
        "ndvi_2024": 0.45,
        "ndvi_2025": 0.499
      },
      "geometry": null
    },
    {
      "type": "Feature",
      "properties": {
        "field_id": "F039",
        "field_name": "Clover Creek",
        "commodity": "Wheat",
        "latitude": 41.78,
        "longitude": -93.7,
        "area_acres": 161,
        "mean_ndvi": 0.425,
        "ndvi_2023": 0.41,
        "ndvi_2024": 0.424,
        "ndvi_2025": 0.442
      },
      "geometry": null
    },
    {
      "type": "Feature",
      "properties": {
        "field_id": "F040",
        "field_name": "Marsh View",
        "commodity": "Wheat",
        "latitude": 41.83,
        "longitude": -93.7,
        "area_acres": 228,
        "mean_ndvi": 0.422,
        "ndvi_2023": 0.454,
        "ndvi_2024": 0.425,
        "ndvi_2025": 0.388
      },
      "geometry": null
    },
    {
      "type": "Feature",
      "properties": {
        "field_id": "F041",
        "field_name": "Riverside",
        "commodity": "Soybeans",
        "latitude": 41.9,
        "longitude": -93.47,
        "area_acres": 126,
        "mean_ndvi": 0.41,
        "ndvi_2023": 0.437,
        "ndvi_2024": 0.408,
        "ndvi_2025": 0.385
      },
      "geometry": null
    },
    {
      "type": "Feature",
      "properties": {
        "field_id": "F042",
        "field_name": "Lakeside",
        "commodity": "Soybeans",
        "latitude": 41.78,
        "longitude": -93.49,
        "area_acres": 237,
        "mean_ndvi": 0.384,
        "ndvi_2023": 0.389,
        "ndvi_2024": 0.373,
        "ndvi_2025": 0.389
      },
      "geometry": null
    },
    {
      "type": "Feature",
      "properties": {
        "field_id": "F043",
        "field_name": "Mountain View",
        "commodity": "Corn",
        "latitude": 41.95,
        "longitude": -93.59,
        "area_acres": 181,
        "mean_ndvi": 0.513,
        "ndvi_2023": 0.52,
        "ndvi_2024": 0.491,
        "ndvi_2025": 0.529
      },
      "geometry": null
    },
    {
      "type": "Feature",
      "properties": {
        "field_id": "F044",
        "field_name": "Valley View",
        "commodity": "Alfalfa",
        "latitude": 41.91,
        "longitude": -93.62,
        "area_acres": 116,
        "mean_ndvi": 0.656,
        "ndvi_2023": 0.64,
        "ndvi_2024": 0.658,
        "ndvi_2025": 0.671
      },
      "geometry": null
    },
    {
      "type": "Feature",
      "properties": {
        "field_id": "F045",
        "field_name": "Forest Edge",
        "commodity": "Wheat",
        "latitude": 42.01,
        "longitude": -93.65,
        "area_acres": 87,
        "mean_ndvi": 0.439,
        "ndvi_2023": 0.427,
        "ndvi_2024": 0.455,
        "ndvi_2025": 0.433
      },
      "geometry": null
    },
    {
      "type": "Feature",
      "properties": {
        "field_id": "F046",
        "field_name": "Woodland",
        "commodity": "Alfalfa",
        "latitude": 41.8,
        "longitude": -93.48,
        "area_acres": 87,
        "mean_ndvi": 0.678,
        "ndvi_2023": 0.693,
        "ndvi_2024": 0.624,
        "ndvi_2025": 0.716
      },
      "geometry": null
    },
    {
      "type": "Feature",
      "properties": {
        "field_id": "F047",
        "field_name": "Stone Creek",
        "commodity": "Wheat",
        "latitude": 41.86,
        "longitude": -93.73,
        "area_acres": 100,
        "mean_ndvi": 0.404,
        "ndvi_2023": 0.39,
        "ndvi_2024": 0.392,
        "ndvi_2025": 0.432
      },
      "geometry": null
    },
    {
      "type": "Feature",
      "properties": {
        "field_id": "F048",
        "field_name": "Sand Ridge",
        "commodity": "Wheat",
        "latitude": 41.85,
        "longitude": -93.51,
        "area_acres": 166,
        "mean_ndvi": 0.437,
        "ndvi_2023": 0.45,
        "ndvi_2024": 0.455,
        "ndvi_2025": 0.407
      },
      "geometry": null
    },
    {
      "type": "Feature",
      "properties": {
        "field_id": "F049",
        "field_name": "Rocky Hill",
        "commodity": "Soybeans",
        "latitude": 42.02,
        "longitude": -93.64,
        "area_acres": 112,
        "mean_ndvi": 0.411,
        "ndvi_2023": 0.445,
        "ndvi_2024": 0.392,
        "ndvi_2025": 0.397
      },
      "geometry": null
    },
    {
      "type": "Feature",
      "properties": {
        "field_id": "F050",
        "field_name": "Quiet Acres",
        "commodity": "Corn",
        "latitude": 42.02,
        "longitude": -93.69,
        "area_acres": 78,
        "mean_ndvi": 0.511,
        "ndvi_2023": 0.484,
        "ndvi_2024": 0.518,
        "ndvi_2025": 0.532
      },
      "geometry": null
    },
    {
      "type": "Feature",
      "properties": {
        "field_id": "F051",
        "field_name": "Hidden Valley",
        "commodity": "Wheat",
        "latitude": 41.98,
        "longitude": -93.67,
        "area_acres": 159,
        "mean_ndvi": 0.439,
        "ndvi_2023": 0.424,
        "ndvi_2024": 0.452,
        "ndvi_2025": 0.442
      },
      "geometry": null
    },
    {
      "type": "Feature",
      "properties": {
        "field_id": "F052",
        "field_name": "Dew Point",
        "commodity": "Alfalfa",
        "latitude": 41.97,
        "longitude": -93.51,
        "area_acres": 137,
        "mean_ndvi": 0.674,
        "ndvi_2023": 0.679,
        "ndvi_2024": 0.641,
        "ndvi_2025": 0.702
      },
      "geometry": null
    },
    {
      "type": "Feature",
      "properties": {
        "field_id": "F053",
        "field_name": "Morning Mist",
        "commodity": "Alfalfa",
        "latitude": 42.02,
        "longitude": -93.5,
        "area_acres": 197,
        "mean_ndvi": 0.68,
        "ndvi_2023": 0.688,
        "ndvi_2024": 0.682,
        "ndvi_2025": 0.67
      },
      "geometry": null
    },
    {
      "type": "Feature",
      "properties": {
        "field_id": "F054",
        "field_name": "Evening Shade",
        "commodity": "Wheat",
        "latitude": 42.02,
        "longitude": -93.51,
        "area_acres": 163,
        "mean_ndvi": 0.453,
        "ndvi_2023": 0.441,
        "ndvi_2024": 0.445,
        "ndvi_2025": 0.474
      },
      "geometry": null
    },
    {
      "type": "Feature",
      "properties": {
        "field_id": "F055",
        "field_name": "Sunrise Field",
        "commodity": "Corn",
        "latitude": 41.77,
        "longitude": -93.63,
        "area_acres": 171,
        "mean_ndvi": 0.479,
        "ndvi_2023": 0.483,
        "ndvi_2024": 0.508,
        "ndvi_2025": 0.446
      },
      "geometry": null
    },
    {
      "type": "Feature",
      "properties": {
        "field_id": "F056",
        "field_name": "Sunset Meadow",
        "commodity": "Wheat",
        "latitude": 41.86,
        "longitude": -93.46,
        "area_acres": 242,
        "mean_ndvi": 0.421,
        "ndvi_2023": 0.41,
        "ndvi_2024": 0.416,
        "ndvi_2025": 0.437
      },
      "geometry": null
    },
    {
      "type": "Feature",
      "properties": {
        "field_id": "F057",
        "field_name": "Twilight Pasture",
        "commodity": "Corn",
        "latitude": 41.91,
        "longitude": -93.7,
        "area_acres": 130,
        "mean_ndvi": 0.497,
        "ndvi_2023": 0.456,
        "ndvi_2024": 0.512,
        "ndvi_2025": 0.524
      },
      "geometry": null
    },
    {
      "type": "Feature",
      "properties": {
        "field_id": "F058",
        "field_name": "Dawn Creek",
        "commodity": "Soybeans",
        "latitude": 41.84,
        "longitude": -93.51,
        "area_acres": 98,
        "mean_ndvi": 0.352,
        "ndvi_2023": 0.349,
        "ndvi_2024": 0.367,
        "ndvi_2025": 0.342
      },
      "geometry": null
    },
    {
      "type": "Feature",
      "properties": {
        "field_id": "F059",
        "field_name": "Dusk Valley",
        "commodity": "Wheat",
        "latitude": 42.05,
        "longitude": -93.47,
        "area_acres": 96,
        "mean_ndvi": 0.452,
        "ndvi_2023": 0.436,
        "ndvi_2024": 0.46,
        "ndvi_2025": 0.461
      },
      "geometry": null
    },
    {
      "type": "Feature",
      "properties": {
        "field_id": "F060",
        "field_name": "Blue Sky",
        "commodity": "Soybeans",
        "latitude": 41.85,
        "longitude": -93.5,
        "area_acres": 66,
        "mean_ndvi": 0.387,
        "ndvi_2023": 0.443,
        "ndvi_2024": 0.372,
        "ndvi_2025": 0.346
      },
      "geometry": null
    },
    {
      "type": "Feature",
      "properties": {
        "field_id": "F061",
        "field_name": "Green Leaf",
        "commodity": "Corn",
        "latitude": 41.93,
        "longitude": -93.68,
        "area_acres": 104,
        "mean_ndvi": 0.512,
        "ndvi_2023": 0.531,
        "ndvi_2024": 0.496,
        "ndvi_2025": 0.509
      },
      "geometry": null
    },
    {
      "type": "Feature",
      "properties": {
        "field_id": "F062",
        "field_name": "Golden Sun",
        "commodity": "Corn",
        "latitude": 41.91,
        "longitude": -93.53,
        "area_acres": 226,
        "mean_ndvi": 0.479,
        "ndvi_2023": 0.471,
        "ndvi_2024": 0.516,
        "ndvi_2025": 0.451
      },
      "geometry": null
    },
    {
      "type": "Feature",
      "properties": {
        "field_id": "F063",
        "field_name": "Silver Moon",
        "commodity": "Alfalfa",
        "latitude": 41.93,
        "longitude": -93.48,
        "area_acres": 202,
        "mean_ndvi": 0.677,
        "ndvi_2023": 0.704,
        "ndvi_2024": 0.653,
        "ndvi_2025": 0.674
      },
      "geometry": null
    },
    {
      "type": "Feature",
      "properties": {
        "field_id": "F064",
        "field_name": "Red Barn",
        "commodity": "Corn",
        "latitude": 42.02,
        "longitude": -93.47,
        "area_acres": 171,
        "mean_ndvi": 0.525,
        "ndvi_2023": 0.546,
        "ndvi_2024": 0.502,
        "ndvi_2025": 0.527
      },
      "geometry": null
    },
    {
      "type": "Feature",
      "properties": {
        "field_id": "F065",
        "field_name": "White Fence",
        "commodity": "Soybeans",
        "latitude": 41.79,
        "longitude": -93.48,
        "area_acres": 202,
        "mean_ndvi": 0.375,
        "ndvi_2023": 0.388,
        "ndvi_2024": 0.37,
        "ndvi_2025": 0.368
      },
      "geometry": null
    },
    {
      "type": "Feature",
      "properties": {
        "field_id": "F066",
        "field_name": "Old Mill",
        "commodity": "Corn",
        "latitude": 41.77,
        "longitude": -93.49,
        "area_acres": 111,
        "mean_ndvi": 0.481,
        "ndvi_2023": 0.513,
        "ndvi_2024": 0.477,
        "ndvi_2025": 0.452
      },
      "geometry": null
    },
    {
      "type": "Feature",
      "properties": {
        "field_id": "F067",
        "field_name": "Country Road",
        "commodity": "Soybeans",
        "latitude": 41.95,
        "longitude": -93.56,
        "area_acres": 215,
        "mean_ndvi": 0.358,
        "ndvi_2023": 0.344,
        "ndvi_2024": 0.39,
        "ndvi_2025": 0.341
      },
      "geometry": null
    },
    {
      "type": "Feature",
      "properties": {
        "field_id": "F068",
        "field_name": "Farm House",
        "commodity": "Corn",
        "latitude": 41.94,
        "longitude": -93.46,
        "area_acres": 66,
        "mean_ndvi": 0.496,
        "ndvi_2023": 0.456,
        "ndvi_2024": 0.505,
        "ndvi_2025": 0.526
      },
      "geometry": null
    },
    {
      "type": "Feature",
      "properties": {
        "field_id": "F069",
        "field_name": "Pond Side",
        "commodity": "Corn",
        "latitude": 41.77,
        "longitude": -93.66,
        "area_acres": 66,
        "mean_ndvi": 0.481,
        "ndvi_2023": 0.483,
        "ndvi_2024": 0.458,
        "ndvi_2025": 0.502
      },
      "geometry": null
    },
    {
      "type": "Feature",
      "properties": {
        "field_id": "F070",
        "field_name": "Woods Edge",
        "commodity": "Soybeans",
        "latitude": 41.86,
        "longitude": -93.5,
        "area_acres": 107,
        "mean_ndvi": 0.386,
        "ndvi_2023": 0.373,
        "ndvi_2024": 0.391,
        "ndvi_2025": 0.395
      },
      "geometry": null
    },
    {
      "type": "Feature",
      "properties": {
        "field_id": "F071",
        "field_name": "Garden Spot",
        "commodity": "Alfalfa",
        "latitude": 42.04,
        "longitude": -93.74,
        "area_acres": 70,
        "mean_ndvi": 0.669,
        "ndvi_2023": 0.674,
        "ndvi_2024": 0.675,
        "ndvi_2025": 0.658
      },
      "geometry": null
    },
    {
      "type": "Feature",
      "properties": {
        "field_id": "F072",
        "field_name": "Harvest Moon",
        "commodity": "Wheat",
        "latitude": 42.04,
        "longitude": -93.69,
        "area_acres": 194,
        "mean_ndvi": 0.435,
        "ndvi_2023": 0.45,
        "ndvi_2024": 0.45,
        "ndvi_2025": 0.406
      },
      "geometry": null
    },
    {
      "type": "Feature",
      "properties": {
        "field_id": "F073",
        "field_name": "Spring Rain",
        "commodity": "Soybeans",
        "latitude": 41.82,
        "longitude": -93.58,
        "area_acres": 225,
        "mean_ndvi": 0.349,
        "ndvi_2023": 0.324,
        "ndvi_2024": 0.373,
        "ndvi_2025": 0.351
      },
      "geometry": null
    },
    {
      "type": "Feature",
      "properties": {
        "field_id": "F074",
        "field_name": "Winter Snow",
        "commodity": "Corn",
        "latitude": 41.98,
        "longitude": -93.74,
        "area_acres": 228,
        "mean_ndvi": 0.502,
        "ndvi_2023": 0.54,
        "ndvi_2024": 0.51,
        "ndvi_2025": 0.458
      },
      "geometry": null
    },
    {
      "type": "Feature",
      "properties": {
        "field_id": "F075",
        "field_name": "Summer Heat",
        "commodity": "Alfalfa",
        "latitude": 41.86,
        "longitude": -93.65,
        "area_acres": 215,
        "mean_ndvi": 0.65,
        "ndvi_2023": 0.671,
        "ndvi_2024": 0.668,
        "ndvi_2025": 0.61
      },
      "geometry": null
    },
    {
      "type": "Feature",
      "properties": {
        "field_id": "F076",
        "field_name": "Fall Leaves",
        "commodity": "Soybeans",
        "latitude": 41.99,
        "longitude": -93.65,
        "area_acres": 176,
        "mean_ndvi": 0.414,
        "ndvi_2023": 0.455,
        "ndvi_2024": 0.411,
        "ndvi_2025": 0.374
      },
      "geometry": null
    },
    {
      "type": "Feature",
      "properties": {
        "field_id": "F077",
        "field_name": "North Ridge",
        "commodity": "Soybeans",
        "latitude": 42.04,
        "longitude": -93.65,
        "area_acres": 185,
        "mean_ndvi": 0.451,
        "ndvi_2023": 0.432,
        "ndvi_2024": 0.445,
        "ndvi_2025": 0.476
      },
      "geometry": null
    },
    {
      "type": "Feature",
      "properties": {
        "field_id": "F078",
        "field_name": "South Slope",
        "commodity": "Alfalfa",
        "latitude": 42.01,
        "longitude": -93.53,
        "area_acres": 238,
        "mean_ndvi": 0.665,
        "ndvi_2023": 0.668,
        "ndvi_2024": 0.686,
        "ndvi_2025": 0.64
      },
      "geometry": null
    },
    {
      "type": "Feature",
      "properties": {
        "field_id": "F079",
        "field_name": "East Valley",
        "commodity": "Soybeans",
        "latitude": 42.05,
        "longitude": -93.66,
        "area_acres": 174,
        "mean_ndvi": 0.411,
        "ndvi_2023": 0.366,
        "ndvi_2024": 0.43,
        "ndvi_2025": 0.436
      },
      "geometry": null
    },
    {
      "type": "Feature",
      "properties": {
        "field_id": "F080",
        "field_name": "West Hill",
        "commodity": "Wheat",
        "latitude": 41.93,
        "longitude": -93.7,
        "area_acres": 172,
        "mean_ndvi": 0.434,
        "ndvi_2023": 0.45,
        "ndvi_2024": 0.426,
        "ndvi_2025": 0.426
      },
      "geometry": null
    },
    {
      "type": "Feature",
      "properties": {
        "field_id": "F081",
        "field_name": "Center Field",
        "commodity": "Corn",
        "latitude": 41.88,
        "longitude": -93.68,
        "area_acres": 220,
        "mean_ndvi": 0.515,
        "ndvi_2023": 0.523,
        "ndvi_2024": 0.515,
        "ndvi_2025": 0.507
      },
      "geometry": null
    },
    {
      "type": "Feature",
      "properties": {
        "field_id": "F082",
        "field_name": "Middle Pasture",
        "commodity": "Alfalfa",
        "latitude": 41.91,
        "longitude": -93.47,
        "area_acres": 78,
        "mean_ndvi": 0.677,
        "ndvi_2023": 0.668,
        "ndvi_2024": 0.668,
        "ndvi_2025": 0.693
      },
      "geometry": null
    },
    {
      "type": "Feature",
      "properties": {
        "field_id": "F083",
        "field_name": "Upper Meadow",
        "commodity": "Wheat",
        "latitude": 41.9,
        "longitude": -93.6,
        "area_acres": 221,
        "mean_ndvi": 0.462,
        "ndvi_2023": 0.45,
        "ndvi_2024": 0.45,
        "ndvi_2025": 0.485
      },
      "geometry": null
    },
    {
      "type": "Feature",
      "properties": {
        "field_id": "F084",
        "field_name": "Lower Creek",
        "commodity": "Alfalfa",
        "latitude": 42.04,
        "longitude": -93.64,
        "area_acres": 207,
        "mean_ndvi": 0.703,
        "ndvi_2023": 0.729,
        "ndvi_2024": 0.695,
        "ndvi_2025": 0.685
      },
      "geometry": null
    },
    {
      "type": "Feature",
      "properties": {
        "field_id": "F085",
        "field_name": "Upper Ridge",
        "commodity": "Alfalfa",
        "latitude": 41.85,
        "longitude": -93.49,
        "area_acres": 138,
        "mean_ndvi": 0.677,
        "ndvi_2023": 0.667,
        "ndvi_2024": 0.686,
        "ndvi_2025": 0.68
      },
      "geometry": null
    },
    {
      "type": "Feature",
      "properties": {
        "field_id": "F086",
        "field_name": "Lower Valley",
        "commodity": "Corn",
        "latitude": 41.94,
        "longitude": -93.65,
        "area_acres": 114,
        "mean_ndvi": 0.498,
        "ndvi_2023": 0.486,
        "ndvi_2024": 0.5,
        "ndvi_2025": 0.506
      },
      "geometry": null
    },
    {
      "type": "Feature",
      "properties": {
        "field_id": "F087",
        "field_name": "Highland",
        "commodity": "Alfalfa",
        "latitude": 42.01,
        "longitude": -93.59,
        "area_acres": 247,
        "mean_ndvi": 0.678,
        "ndvi_2023": 0.654,
        "ndvi_2024": 0.686,
        "ndvi_2025": 0.692
      },
      "geometry": null
    },
    {
      "type": "Feature",
      "properties": {
        "field_id": "F088",
        "field_name": "Lowland",
        "commodity": "Corn",
        "latitude": 41.94,
        "longitude": -93.48,
        "area_acres": 74,
        "mean_ndvi": 0.499,
        "ndvi_2023": 0.486,
        "ndvi_2024": 0.486,
        "ndvi_2025": 0.526
      },
      "geometry": null
    },
    {
      "type": "Feature",
      "properties": {
        "field_id": "F089",
        "field_name": "Prime Acres",
        "commodity": "Corn",
        "latitude": 42.0,
        "longitude": -93.59,
        "area_acres": 56,
        "mean_ndvi": 0.533,
        "ndvi_2023": 0.507,
        "ndvi_2024": 0.535,
        "ndvi_2025": 0.558
      },
      "geometry": null
    },
    {
      "type": "Feature",
      "properties": {
        "field_id": "F090",
        "field_name": "Heritage Farm",
        "commodity": "Wheat",
        "latitude": 42.02,
        "longitude": -93.68,
        "area_acres": 58,
        "mean_ndvi": 0.443,
        "ndvi_2023": 0.444,
        "ndvi_2024": 0.451,
        "ndvi_2025": 0.433
      },
      "geometry": null
    },
    {
      "type": "Feature",
      "properties": {
        "field_id": "F091",
        "field_name": "Family Fields",
        "commodity": "Soybeans",
        "latitude": 41.88,
        "longitude": -93.7,
        "area_acres": 98,
        "mean_ndvi": 0.417,
        "ndvi_2023": 0.437,
        "ndvi_2024": 0.399,
        "ndvi_2025": 0.415
      },
      "geometry": null
    },
    {
      "type": "Feature",
      "properties": {
        "field_id": "F092",
        "field_name": "Legacy Pasture",
        "commodity": "Corn",
        "latitude": 41.95,
        "longitude": -93.62,
        "area_acres": 174,
        "mean_ndvi": 0.497,
        "ndvi_2023": 0.486,
        "ndvi_2024": 0.512,
        "ndvi_2025": 0.494
      },
      "geometry": null
    },
    {
      "type": "Feature",
      "properties": {
        "field_id": "F093",
        "field_name": "Founders Field",
        "commodity": "Alfalfa",
        "latitude": 41.86,
        "longitude": -93.73,
        "area_acres": 98,
        "mean_ndvi": 0.644,
        "ndvi_2023": 0.652,
        "ndvi_2024": 0.66,
        "ndvi_2025": 0.62
      },
      "geometry": null
    },
    {
      "type": "Feature",
      "properties": {
        "field_id": "F094",
        "field_name": "Pioneer Plot",
        "commodity": "Alfalfa",
        "latitude": 41.88,
        "longitude": -93.65,
        "area_acres": 199,
        "mean_ndvi": 0.656,
        "ndvi_2023": 0.643,
        "ndvi_2024": 0.643,
        "ndvi_2025": 0.682
      },
      "geometry": null
    },
    {
      "type": "Feature",
      "properties": {
        "field_id": "F095",
        "field_name": "Settlement Field",
        "commodity": "Wheat",
        "latitude": 41.87,
        "longitude": -93.7,
        "area_acres": 54,
        "mean_ndvi": 0.465,
        "ndvi_2023": 0.453,
        "ndvi_2024": 0.449,
        "ndvi_2025": 0.492
      },
      "geometry": null
    },
    {
      "type": "Feature",
      "properties": {
        "field_id": "F096",
        "field_name": "Homestead Meadow",
        "commodity": "Soybeans",
        "latitude": 41.86,
        "longitude": -93.65,
        "area_acres": 242,
        "mean_ndvi": 0.386,
        "ndvi_2023": 0.372,
        "ndvi_2024": 0.37,
        "ndvi_2025": 0.415
      },
      "geometry": null
    },
    {
      "type": "Feature",
      "properties": {
        "field_id": "F097",
        "field_name": "Colonial Creek",
        "commodity": "Alfalfa",
        "latitude": 41.91,
        "longitude": -93.53,
        "area_acres": 116,
        "mean_ndvi": 0.686,
        "ndvi_2023": 0.709,
        "ndvi_2024": 0.664,
        "ndvi_2025": 0.685
      },
      "geometry": null
    },
    {
      "type": "Feature",
      "properties": {
        "field_id": "F098",
        "field_name": "Historic Farm",
        "commodity": "Corn",
        "latitude": 41.98,
        "longitude": -93.7,
        "area_acres": 180,
        "mean_ndvi": 0.53,
        "ndvi_2023": 0.541,
        "ndvi_2024": 0.519,
        "ndvi_2025": 0.531
      },
      "geometry": null
    },
    {
      "type": "Feature",
      "properties": {
        "field_id": "F099",
        "field_name": "Liberty Field",
        "commodity": "Soybeans",
        "latitude": 41.95,
        "longitude": -93.7,
        "area_acres": 54,
        "mean_ndvi": 0.386,
        "ndvi_2023": 0.387,
        "ndvi_2024": 0.414,
        "ndvi_2025": 0.357
      },
      "geometry": null
    },
    {
      "type": "Feature",
      "properties": {
        "field_id": "F100",
        "field_name": "Freedom Pasture",
        "commodity": "Wheat",
        "latitude": 41.94,
        "longitude": -93.68,
        "area_acres": 150,
        "mean_ndvi": 0.429,
        "ndvi_2023": 0.418,
        "ndvi_2024": 0.453,
        "ndvi_2025": 0.416
      },
      "geometry": null
    },
    {
      "type": "Feature",
      "properties": {
        "field_id": "F101",
        "field_name": "Prairie Wind",
        "commodity": "Wheat",
        "latitude": 41.85,
        "longitude": -93.68,
        "area_acres": 214,
        "mean_ndvi": 0.4,
        "ndvi_2023": 0.39,
        "ndvi_2024": 0.433,
        "ndvi_2025": 0.376
      },
      "geometry": null
    },
    {
      "type": "Feature",
      "properties": {
        "field_id": "F102",
        "field_name": "Golden Harvest",
        "commodity": "Wheat",
        "latitude": 41.84,
        "longitude": -93.56,
        "area_acres": 156,
        "mean_ndvi": 0.436,
        "ndvi_2023": 0.44,
        "ndvi_2024": 0.422,
        "ndvi_2025": 0.447
      },
      "geometry": null
    },
    {
      "type": "Feature",
      "properties": {
        "field_id": "F103",
        "field_name": "Sunny Slope",
        "commodity": "Wheat",
        "latitude": 42.03,
        "longitude": -93.72,
        "area_acres": 236,
        "mean_ndvi": 0.464,
        "ndvi_2023": 0.436,
        "ndvi_2024": 0.478,
        "ndvi_2025": 0.478
      },
      "geometry": null
    },
    {
      "type": "Feature",
      "properties": {
        "field_id": "F104",
        "field_name": "Rolling Hills",
        "commodity": "Soybeans",
        "latitude": 41.93,
        "longitude": -93.56,
        "area_acres": 56,
        "mean_ndvi": 0.386,
        "ndvi_2023": 0.358,
        "ndvi_2024": 0.414,
        "ndvi_2025": 0.386
      },
      "geometry": null
    },
    {
      "type": "Feature",
      "properties": {
        "field_id": "F105",
        "field_name": "Meadow Brook",
        "commodity": "Wheat",
        "latitude": 41.78,
        "longitude": -93.6,
        "area_acres": 213,
        "mean_ndvi": 0.42,
        "ndvi_2023": 0.422,
        "ndvi_2024": 0.414,
        "ndvi_2025": 0.424
      },
      "geometry": null
    },
    {
      "type": "Feature",
      "properties": {
        "field_id": "F106",
        "field_name": "Old Farmstead",
        "commodity": "Soybeans",
        "latitude": 41.84,
        "longitude": -93.52,
        "area_acres": 241,
        "mean_ndvi": 0.374,
        "ndvi_2023": 0.362,
        "ndvi_2024": 0.38,
        "ndvi_2025": 0.378
      },
      "geometry": null
    },
    {
      "type": "Feature",
      "properties": {
        "field_id": "F107",
        "field_name": "River Valley",
        "commodity": "Soybeans",
        "latitude": 41.89,
        "longitude": -93.59,
        "area_acres": 247,
        "mean_ndvi": 0.423,
        "ndvi_2023": 0.425,
        "ndvi_2024": 0.411,
        "ndvi_2025": 0.432
      },
      "geometry": null
    },
    {
      "type": "Feature",
      "properties": {
        "field_id": "F108",
        "field_name": "Creek Side",
        "commodity": "Soybeans",
        "latitude": 41.8,
        "longitude": -93.45,
        "area_acres": 235,
        "mean_ndvi": 0.382,
        "ndvi_2023": 0.358,
        "ndvi_2024": 0.354,
        "ndvi_2025": 0.433
      },
      "geometry": null
    },
    {
      "type": "Feature",
      "properties": {
        "field_id": "F109",
        "field_name": "Hilltop View",
        "commodity": "Alfalfa",
        "latitude": 41.83,
        "longitude": -93.64,
        "area_acres": 53,
        "mean_ndvi": 0.652,
        "ndvi_2023": 0.669,
        "ndvi_2024": 0.646,
        "ndvi_2025": 0.642
      },
      "geometry": null
    },
    {
      "type": "Feature",
      "properties": {
        "field_id": "F110",
        "field_name": "Valley Floor",
        "commodity": "Alfalfa",
        "latitude": 41.99,
        "longitude": -93.65,
        "area_acres": 218,
        "mean_ndvi": 0.672,
        "ndvi_2023": 0.698,
        "ndvi_2024": 0.666,
        "ndvi_2025": 0.654
      },
      "geometry": null
    },
    {
      "type": "Feature",
      "properties": {
        "field_id": "F111",
        "field_name": "North Pasture",
        "commodity": "Soybeans",
        "latitude": 41.81,
        "longitude": -93.51,
        "area_acres": 193,
        "mean_ndvi": 0.387,
        "ndvi_2023": 0.404,
        "ndvi_2024": 0.384,
        "ndvi_2025": 0.373
      },
      "geometry": null
    },
    {
      "type": "Feature",
      "properties": {
        "field_id": "F112",
        "field_name": "South Meadow",
        "commodity": "Alfalfa",
        "latitude": 41.79,
        "longitude": -93.59,
        "area_acres": 124,
        "mean_ndvi": 0.68,
        "ndvi_2023": 0.675,
        "ndvi_2024": 0.678,
        "ndvi_2025": 0.689
      },
      "geometry": null
    },
    {
      "type": "Feature",
      "properties": {
        "field_id": "F113",
        "field_name": "East Ridge",
        "commodity": "Alfalfa",
        "latitude": 41.99,
        "longitude": -93.57,
        "area_acres": 80,
        "mean_ndvi": 0.667,
        "ndvi_2023": 0.666,
        "ndvi_2024": 0.665,
        "ndvi_2025": 0.67
      },
      "geometry": null
    },
    {
      "type": "Feature",
      "properties": {
        "field_id": "F114",
        "field_name": "West Field",
        "commodity": "Corn",
        "latitude": 42.02,
        "longitude": -93.74,
        "area_acres": 127,
        "mean_ndvi": 0.509,
        "ndvi_2023": 0.535,
        "ndvi_2024": 0.519,
        "ndvi_2025": 0.473
      },
      "geometry": null
    },
    {
      "type": "Feature",
      "properties": {
        "field_id": "F115",
        "field_name": "Center Pasture",
        "commodity": "Alfalfa",
        "latitude": 41.82,
        "longitude": -93.57,
        "area_acres": 208,
        "mean_ndvi": 0.619,
        "ndvi_2023": 0.61,
        "ndvi_2024": 0.644,
        "ndvi_2025": 0.602
      },
      "geometry": null
    },
    {
      "type": "Feature",
      "properties": {
        "field_id": "F116",
        "field_name": "Corner Plot",
        "commodity": "Corn",
        "latitude": 41.82,
        "longitude": -93.66,
        "area_acres": 162,
        "mean_ndvi": 0.461,
        "ndvi_2023": 0.432,
        "ndvi_2024": 0.478,
        "ndvi_2025": 0.475
      },
      "geometry": null
    },
    {
      "type": "Feature",
      "properties": {
        "field_id": "F117",
        "field_name": "Back Forty",
        "commodity": "Alfalfa",
        "latitude": 41.96,
        "longitude": -93.46,
        "area_acres": 82,
        "mean_ndvi": 0.686,
        "ndvi_2023": 0.676,
        "ndvi_2024": 0.676,
        "ndvi_2025": 0.707
      },
      "geometry": null
    },
    {
      "type": "Feature",
      "properties": {
        "field_id": "F118",
        "field_name": "Front Acres",
        "commodity": "Alfalfa",
        "latitude": 41.82,
        "longitude": -93.49,
        "area_acres": 164,
        "mean_ndvi": 0.629,
        "ndvi_2023": 0.643,
        "ndvi_2024": 0.627,
        "ndvi_2025": 0.616
      },
      "geometry": null
    },
    {
      "type": "Feature",
      "properties": {
        "field_id": "F119",
        "field_name": "Home Farm",
        "commodity": "Corn",
        "latitude": 41.78,
        "longitude": -93.54,
        "area_acres": 202,
        "mean_ndvi": 0.484,
        "ndvi_2023": 0.525,
        "ndvi_2024": 0.48,
        "ndvi_2025": 0.447
      },
      "geometry": null
    },
    {
      "type": "Feature",
      "properties": {
        "field_id": "F120",
        "field_name": "Cross Creek",
        "commodity": "Alfalfa",
        "latitude": 42.02,
        "longitude": -93.65,
        "area_acres": 121,
        "mean_ndvi": 0.663,
        "ndvi_2023": 0.683,
        "ndvi_2024": 0.674,
        "ndvi_2025": 0.633
      },
      "geometry": null
    },
    {
      "type": "Feature",
      "properties": {
        "field_id": "F121",
        "field_name": "Deep Water",
        "commodity": "Corn",
        "latitude": 41.92,
        "longitude": -93.73,
        "area_acres": 230,
        "mean_ndvi": 0.505,
        "ndvi_2023": 0.482,
        "ndvi_2024": 0.492,
        "ndvi_2025": 0.542
      },
      "geometry": null
    },
    {
      "type": "Feature",
      "properties": {
        "field_id": "F122",
        "field_name": "Sandy Loam",
        "commodity": "Alfalfa",
        "latitude": 42.0,
        "longitude": -93.61,
        "area_acres": 241,
        "mean_ndvi": 0.67,
        "ndvi_2023": 0.656,
        "ndvi_2024": 0.662,
        "ndvi_2025": 0.694
      },
      "geometry": null
    },
    {
      "type": "Feature",
      "properties": {
        "field_id": "F123",
        "field_name": "Clay Bank",
        "commodity": "Wheat",
        "latitude": 41.83,
        "longitude": -93.64,
        "area_acres": 237,
        "mean_ndvi": 0.444,
        "ndvi_2023": 0.466,
        "ndvi_2024": 0.436,
        "ndvi_2025": 0.43
      },
      "geometry": null
    },
    {
      "type": "Feature",
      "properties": {
        "field_id": "F124",
        "field_name": "Gravel Pit",
        "commodity": "Wheat",
        "latitude": 41.89,
        "longitude": -93.51,
        "area_acres": 72,
        "mean_ndvi": 0.435,
        "ndvi_2023": 0.43,
        "ndvi_2024": 0.443,
        "ndvi_2025": 0.432
      },
      "geometry": null
    },
    {
      "type": "Feature",
      "properties": {
        "field_id": "F125",
        "field_name": "Timber Edge",
        "commodity": "Corn",
        "latitude": 41.95,
        "longitude": -93.63,
        "area_acres": 217,
        "mean_ndvi": 0.521,
        "ndvi_2023": 0.563,
        "ndvi_2024": 0.511,
        "ndvi_2025": 0.489
      },
      "geometry": null
    },
    {
      "type": "Feature",
      "properties": {
        "field_id": "F126",
        "field_name": "Oak Hill",
        "commodity": "Corn",
        "latitude": 42.01,
        "longitude": -93.67,
        "area_acres": 224,
        "mean_ndvi": 0.488,
        "ndvi_2023": 0.471,
        "ndvi_2024": 0.485,
        "ndvi_2025": 0.508
      },
      "geometry": null
    },
    {
      "type": "Feature",
      "properties": {
        "field_id": "F127",
        "field_name": "Maple Grove",
        "commodity": "Alfalfa",
        "latitude": 42.01,
        "longitude": -93.55,
        "area_acres": 77,
        "mean_ndvi": 0.656,
        "ndvi_2023": 0.628,
        "ndvi_2024": 0.69,
        "ndvi_2025": 0.65
      },
      "geometry": null
    },
    {
      "type": "Feature",
      "properties": {
        "field_id": "F128",
        "field_name": "Cedar Lane",
        "commodity": "Soybeans",
        "latitude": 41.85,
        "longitude": -93.72,
        "area_acres": 226,
        "mean_ndvi": 0.373,
        "ndvi_2023": 0.364,
        "ndvi_2024": 0.397,
        "ndvi_2025": 0.36
      },
      "geometry": null
    },
    {
      "type": "Feature",
      "properties": {
        "field_id": "F129",
        "field_name": "Pine Ridge",
        "commodity": "Soybeans",
        "latitude": 42.03,
        "longitude": -93.63,
        "area_acres": 176,
        "mean_ndvi": 0.428,
        "ndvi_2023": 0.44,
        "ndvi_2024": 0.41,
        "ndvi_2025": 0.433
      },
      "geometry": null
    },
    {
      "type": "Feature",
      "properties": {
        "field_id": "F130",
        "field_name": "Birch Run",
        "commodity": "Alfalfa",
        "latitude": 41.98,
        "longitude": -93.66,
        "area_acres": 80,
        "mean_ndvi": 0.69,
        "ndvi_2023": 0.698,
        "ndvi_2024": 0.66,
        "ndvi_2025": 0.711
      },
      "geometry": null
    },
    {
      "type": "Feature",
      "properties": {
        "field_id": "F131",
        "field_name": "Willow Bend",
        "commodity": "Soybeans",
        "latitude": 42.02,
        "longitude": -93.64,
        "area_acres": 141,
        "mean_ndvi": 0.414,
        "ndvi_2023": 0.398,
        "ndvi_2024": 0.401,
        "ndvi_2025": 0.444
      },
      "geometry": null
    },
    {
      "type": "Feature",
      "properties": {
        "field_id": "F132",
        "field_name": "Elm Creek",
        "commodity": "Corn",
        "latitude": 41.92,
        "longitude": -93.66,
        "area_acres": 241,
        "mean_ndvi": 0.501,
        "ndvi_2023": 0.486,
        "ndvi_2024": 0.514,
        "ndvi_2025": 0.503
      },
      "geometry": null
    },
    {
      "type": "Feature",
      "properties": {
        "field_id": "F133",
        "field_name": "Ash Grove",
        "commodity": "Corn",
        "latitude": 41.83,
        "longitude": -93.6,
        "area_acres": 236,
        "mean_ndvi": 0.504,
        "ndvi_2023": 0.476,
        "ndvi_2024": 0.495,
        "ndvi_2025": 0.54
      },
      "geometry": null
    },
    {
      "type": "Feature",
      "properties": {
        "field_id": "F134",
        "field_name": "Spruce Point",
        "commodity": "Wheat",
        "latitude": 41.76,
        "longitude": -93.74,
        "area_acres": 109,
        "mean_ndvi": 0.434,
        "ndvi_2023": 0.44,
        "ndvi_2024": 0.421,
        "ndvi_2025": 0.44
      },
      "geometry": null
    },
    {
      "type": "Feature",
      "properties": {
        "field_id": "F135",
        "field_name": "Fir Branch",
        "commodity": "Wheat",
        "latitude": 42.01,
        "longitude": -93.61,
        "area_acres": 224,
        "mean_ndvi": 0.471,
        "ndvi_2023": 0.471,
        "ndvi_2024": 0.466,
        "ndvi_2025": 0.474
      },
      "geometry": null
    },
    {
      "type": "Feature",
      "properties": {
        "field_id": "F136",
        "field_name": "Juniper Field",
        "commodity": "Alfalfa",
        "latitude": 41.99,
        "longitude": -93.62,
        "area_acres": 94,
        "mean_ndvi": 0.669,
        "ndvi_2023": 0.649,
        "ndvi_2024": 0.67,
        "ndvi_2025": 0.688
      },
      "geometry": null
    },
    {
      "type": "Feature",
      "properties": {
        "field_id": "F137",
        "field_name": "Cypress Swamp",
        "commodity": "Soybeans",
        "latitude": 41.86,
        "longitude": -93.64,
        "area_acres": 90,
        "mean_ndvi": 0.392,
        "ndvi_2023": 0.438,
        "ndvi_2024": 0.395,
        "ndvi_2025": 0.341
      },
      "geometry": null
    },
    {
      "type": "Feature",
      "properties": {
        "field_id": "F138",
        "field_name": "Redbud Patch",
        "commodity": "Corn",
        "latitude": 42.03,
        "longitude": -93.63,
        "area_acres": 183,
        "mean_ndvi": 0.525,
        "ndvi_2023": 0.543,
        "ndvi_2024": 0.504,
        "ndvi_2025": 0.528
      },
      "geometry": null
    },
    {
      "type": "Feature",
      "properties": {
        "field_id": "F139",
        "field_name": "Dogwood Corner",
        "commodity": "Soybeans",
        "latitude": 42.04,
        "longitude": -93.6,
        "area_acres": 193,
        "mean_ndvi": 0.414,
        "ndvi_2023": 0.404,
        "ndvi_2024": 0.421,
        "ndvi_2025": 0.416
      },
      "geometry": null
    },
    {
      "type": "Feature",
      "properties": {
        "field_id": "F140",
        "field_name": "Magnolia Plot",
        "commodity": "Soybeans",
        "latitude": 41.81,
        "longitude": -93.67,
        "area_acres": 225,
        "mean_ndvi": 0.415,
        "ndvi_2023": 0.407,
        "ndvi_2024": 0.398,
        "ndvi_2025": 0.44
      },
      "geometry": null
    },
    {
      "type": "Feature",
      "properties": {
        "field_id": "F141",
        "field_name": "Hickory Hollow",
        "commodity": "Wheat",
        "latitude": 41.79,
        "longitude": -93.64,
        "area_acres": 192,
        "mean_ndvi": 0.421,
        "ndvi_2023": 0.46,
        "ndvi_2024": 0.411,
        "ndvi_2025": 0.393
      },
      "geometry": null
    },
    {
      "type": "Feature",
      "properties": {
        "field_id": "F142",
        "field_name": "Walnut Grove",
        "commodity": "Corn",
        "latitude": 41.78,
        "longitude": -93.55,
        "area_acres": 154,
        "mean_ndvi": 0.495,
        "ndvi_2023": 0.492,
        "ndvi_2024": 0.49,
        "ndvi_2025": 0.502
      },
      "geometry": null
    },
    {
      "type": "Feature",
      "properties": {
        "field_id": "F143",
        "field_name": "Chestnut Hill",
        "commodity": "Corn",
        "latitude": 42.0,
        "longitude": -93.46,
        "area_acres": 208,
        "mean_ndvi": 0.52,
        "ndvi_2023": 0.499,
        "ndvi_2024": 0.523,
        "ndvi_2025": 0.539
      },
      "geometry": null
    },
    {
      "type": "Feature",
      "properties": {
        "field_id": "F144",
        "field_name": "Sycamore Ridge",
        "commodity": "Corn",
        "latitude": 42.01,
        "longitude": -93.57,
        "area_acres": 244,
        "mean_ndvi": 0.516,
        "ndvi_2023": 0.503,
        "ndvi_2024": 0.534,
        "ndvi_2025": 0.512
      },
      "geometry": null
    },
    {
      "type": "Feature",
      "properties": {
        "field_id": "F145",
        "field_name": "Poplar Field",
        "commodity": "Alfalfa",
        "latitude": 42.04,
        "longitude": -93.58,
        "area_acres": 209,
        "mean_ndvi": 0.693,
        "ndvi_2023": 0.699,
        "ndvi_2024": 0.686,
        "ndvi_2025": 0.696
      },
      "geometry": null
    },
    {
      "type": "Feature",
      "properties": {
        "field_id": "F146",
        "field_name": "Cotton Row",
        "commodity": "Soybeans",
        "latitude": 41.9,
        "longitude": -93.65,
        "area_acres": 234,
        "mean_ndvi": 0.4,
        "ndvi_2023": 0.37,
        "ndvi_2024": 0.395,
        "ndvi_2025": 0.434
      },
      "geometry": null
    },
    {
      "type": "Feature",
      "properties": {
        "field_id": "F147",
        "field_name": "Tobacco Barn",
        "commodity": "Corn",
        "latitude": 41.96,
        "longitude": -93.62,
        "area_acres": 177,
        "mean_ndvi": 0.51,
        "ndvi_2023": 0.546,
        "ndvi_2024": 0.49,
        "ndvi_2025": 0.495
      },
      "geometry": null
    },
    {
      "type": "Feature",
      "properties": {
        "field_id": "F148",
        "field_name": "Corn Patch",
        "commodity": "Corn",
        "latitude": 41.97,
        "longitude": -93.63,
        "area_acres": 132,
        "mean_ndvi": 0.528,
        "ndvi_2023": 0.554,
        "ndvi_2024": 0.527,
        "ndvi_2025": 0.503
      },
      "geometry": null
    },
    {
      "type": "Feature",
      "properties": {
        "field_id": "F149",
        "field_name": "Soybean Field",
        "commodity": "Alfalfa",
        "latitude": 42.03,
        "longitude": -93.68,
        "area_acres": 174,
        "mean_ndvi": 0.664,
        "ndvi_2023": 0.663,
        "ndvi_2024": 0.655,
        "ndvi_2025": 0.674
      },
      "geometry": null
    },
    {
      "type": "Feature",
      "properties": {
        "field_id": "F150",
        "field_name": "Wheat Acre",
        "commodity": "Corn",
        "latitude": 41.9,
        "longitude": -93.63,
        "area_acres": 180,
        "mean_ndvi": 0.502,
        "ndvi_2023": 0.47,
        "ndvi_2024": 0.491,
        "ndvi_2025": 0.545
      },
      "geometry": null
    },
    {
      "type": "Feature",
      "properties": {
        "field_id": "F151",
        "field_name": "Alfalfa Stand",
        "commodity": "Wheat",
        "latitude": 41.84,
        "longitude": -93.52,
        "area_acres": 186,
        "mean_ndvi": 0.414,
        "ndvi_2023": 0.42,
        "ndvi_2024": 0.428,
        "ndvi_2025": 0.393
      },
      "geometry": null
    },
    {
      "type": "Feature",
      "properties": {
        "field_id": "F152",
        "field_name": "Clover Field",
        "commodity": "Soybeans",
        "latitude": 42.02,
        "longitude": -93.57,
        "area_acres": 142,
        "mean_ndvi": 0.423,
        "ndvi_2023": 0.432,
        "ndvi_2024": 0.428,
        "ndvi_2025": 0.409
      },
      "geometry": null
    },
    {
      "type": "Feature",
      "properties": {
        "field_id": "F153",
        "field_name": "Bluegrass Pasture",
        "commodity": "Soybeans",
        "latitude": 41.96,
        "longitude": -93.61,
        "area_acres": 205,
        "mean_ndvi": 0.378,
        "ndvi_2023": 0.356,
        "ndvi_2024": 0.403,
        "ndvi_2025": 0.375
      },
      "geometry": null
    },
    {
      "type": "Feature",
      "properties": {
        "field_id": "F154",
        "field_name": "Fescue Meadow",
        "commodity": "Soybeans",
        "latitude": 41.88,
        "longitude": -93.75,
        "area_acres": 158,
        "mean_ndvi": 0.393,
        "ndvi_2023": 0.362,
        "ndvi_2024": 0.406,
        "ndvi_2025": 0.412
      },
      "geometry": null
    },
    {
      "type": "Feature",
      "properties": {
        "field_id": "F155",
        "field_name": "Timothy Lot",
        "commodity": "Alfalfa",
        "latitude": 42.03,
        "longitude": -93.62,
        "area_acres": 183,
        "mean_ndvi": 0.674,
        "ndvi_2023": 0.672,
        "ndvi_2024": 0.697,
        "ndvi_2025": 0.655
      },
      "geometry": null
    },
    {
      "type": "Feature",
      "properties": {
        "field_id": "F156",
        "field_name": "Brome Grass",
        "commodity": "Soybeans",
        "latitude": 41.9,
        "longitude": -93.65,
        "area_acres": 76,
        "mean_ndvi": 0.417,
        "ndvi_2023": 0.428,
        "ndvi_2024": 0.396,
        "ndvi_2025": 0.428
      },
      "geometry": null
    },
    {
      "type": "Feature",
      "properties": {
        "field_id": "F157",
        "field_name": "Orchard Row",
        "commodity": "Corn",
        "latitude": 41.84,
        "longitude": -93.56,
        "area_acres": 89,
        "mean_ndvi": 0.482,
        "ndvi_2023": 0.471,
        "ndvi_2024": 0.488,
        "ndvi_2025": 0.488
      },
      "geometry": null
    },
    {
      "type": "Feature",
      "properties": {
        "field_id": "F158",
        "field_name": "Vineyard Hill",
        "commodity": "Wheat",
        "latitude": 42.0,
        "longitude": -93.59,
        "area_acres": 77,
        "mean_ndvi": 0.464,
        "ndvi_2023": 0.47,
        "ndvi_2024": 0.428,
        "ndvi_2025": 0.494
      },
      "geometry": null
    },
    {
      "type": "Feature",
      "properties": {
        "field_id": "F159",
        "field_name": "Berry Patch",
        "commodity": "Wheat",
        "latitude": 41.87,
        "longitude": -93.56,
        "area_acres": 191,
        "mean_ndvi": 0.416,
        "ndvi_2023": 0.431,
        "ndvi_2024": 0.421,
        "ndvi_2025": 0.394
      },
      "geometry": null
    },
    {
      "type": "Feature",
      "properties": {
        "field_id": "F160",
        "field_name": "Vegetable Plot",
        "commodity": "Alfalfa",
        "latitude": 41.88,
        "longitude": -93.47,
        "area_acres": 168,
        "mean_ndvi": 0.638,
        "ndvi_2023": 0.64,
        "ndvi_2024": 0.648,
        "ndvi_2025": 0.625
      },
      "geometry": null
    },
    {
      "type": "Feature",
      "properties": {
        "field_id": "F161",
        "field_name": "Garden Row",
        "commodity": "Alfalfa",
        "latitude": 42.0,
        "longitude": -93.64,
        "area_acres": 180,
        "mean_ndvi": 0.664,
        "ndvi_2023": 0.643,
        "ndvi_2024": 0.691,
        "ndvi_2025": 0.658
      },
      "geometry": null
    },
    {
      "type": "Feature",
      "properties": {
        "field_id": "F162",
        "field_name": "Orchard Acre",
        "commodity": "Corn",
        "latitude": 41.76,
        "longitude": -93.72,
        "area_acres": 145,
        "mean_ndvi": 0.493,
        "ndvi_2023": 0.499,
        "ndvi_2024": 0.473,
        "ndvi_2025": 0.506
      },
      "geometry": null
    },
    {
      "type": "Feature",
      "properties": {
        "field_id": "F163",
        "field_name": "Fruit Grove",
        "commodity": "Wheat",
        "latitude": 41.9,
        "longitude": -93.58,
        "area_acres": 204,
        "mean_ndvi": 0.414,
        "ndvi_2023": 0.366,
        "ndvi_2024": 0.453,
        "ndvi_2025": 0.424
      },
      "geometry": null
    },
    {
      "type": "Feature",
      "properties": {
        "field_id": "F164",
        "field_name": "Nut Orchard",
        "commodity": "Alfalfa",
        "latitude": 42.02,
        "longitude": -93.53,
        "area_acres": 150,
        "mean_ndvi": 0.706,
        "ndvi_2023": 0.749,
        "ndvi_2024": 0.675,
        "ndvi_2025": 0.694
      },
      "geometry": null
    },
    {
      "type": "Feature",
      "properties": {
        "field_id": "F165",
        "field_name": "Silage Field",
        "commodity": "Corn",
        "latitude": 41.86,
        "longitude": -93.74,
        "area_acres": 124,
        "mean_ndvi": 0.482,
        "ndvi_2023": 0.435,
        "ndvi_2024": 0.484,
        "ndvi_2025": 0.528
      },
      "geometry": null
    },
    {
      "type": "Feature",
      "properties": {
        "field_id": "F166",
        "field_name": "Cover Crop",
        "commodity": "Corn",
        "latitude": 42.04,
        "longitude": -93.49,
        "area_acres": 190,
        "mean_ndvi": 0.507,
        "ndvi_2023": 0.517,
        "ndvi_2024": 0.531,
        "ndvi_2025": 0.472
      },
      "geometry": null
    },
    {
      "type": "Feature",
      "properties": {
        "field_id": "F167",
        "field_name": "Green Manure",
        "commodity": "Alfalfa",
        "latitude": 41.92,
        "longitude": -93.66,
        "area_acres": 70,
        "mean_ndvi": 0.665,
        "ndvi_2023": 0.698,
        "ndvi_2024": 0.66,
        "ndvi_2025": 0.637
      },
      "geometry": null
    },
    {
      "type": "Feature",
      "properties": {
        "field_id": "F168",
        "field_name": "Fallow Ground",
        "commodity": "Soybeans",
        "latitude": 41.96,
        "longitude": -93.72,
        "area_acres": 58,
        "mean_ndvi": 0.413,
        "ndvi_2023": 0.408,
        "ndvi_2024": 0.412,
        "ndvi_2025": 0.42
      },
      "geometry": null
    },
    {
      "type": "Feature",
      "properties": {
        "field_id": "F169",
        "field_name": "Set Aside",
        "commodity": "Corn",
        "latitude": 41.88,
        "longitude": -93.55,
        "area_acres": 226,
        "mean_ndvi": 0.471,
        "ndvi_2023": 0.442,
        "ndvi_2024": 0.477,
        "ndvi_2025": 0.495
      },
      "geometry": null
    },
    {
      "type": "Feature",
      "properties": {
        "field_id": "F170",
        "field_name": "Conservation Area",
        "commodity": "Alfalfa",
        "latitude": 41.95,
        "longitude": -93.53,
        "area_acres": 172,
        "mean_ndvi": 0.688,
        "ndvi_2023": 0.672,
        "ndvi_2024": 0.67,
        "ndvi_2025": 0.72
      },
      "geometry": null
    },
    {
      "type": "Feature",
      "properties": {
        "field_id": "F171",
        "field_name": "Wetland Buffer",
        "commodity": "Alfalfa",
        "latitude": 41.97,
        "longitude": -93.58,
        "area_acres": 236,
        "mean_ndvi": 0.649,
        "ndvi_2023": 0.688,
        "ndvi_2024": 0.655,
        "ndvi_2025": 0.605
      },
      "geometry": null
    },
    {
      "type": "Feature",
      "properties": {
        "field_id": "F172",
        "field_name": "Filter Strip",
        "commodity": "Corn",
        "latitude": 42.0,
        "longitude": -93.52,
        "area_acres": 92,
        "mean_ndvi": 0.515,
        "ndvi_2023": 0.536,
        "ndvi_2024": 0.521,
        "ndvi_2025": 0.489
      },
      "geometry": null
    },
    {
      "type": "Feature",
      "properties": {
        "field_id": "F173",
        "field_name": "Grass Waterway",
        "commodity": "Wheat",
        "latitude": 41.78,
        "longitude": -93.68,
        "area_acres": 119,
        "mean_ndvi": 0.458,
        "ndvi_2023": 0.466,
        "ndvi_2024": 0.437,
        "ndvi_2025": 0.471
      },
      "geometry": null
    },
    {
      "type": "Feature",
      "properties": {
        "field_id": "F174",
        "field_name": "Terrace Row",
        "commodity": "Wheat",
        "latitude": 41.86,
        "longitude": -93.6,
        "area_acres": 156,
        "mean_ndvi": 0.438,
        "ndvi_2023": 0.449,
        "ndvi_2024": 0.429,
        "ndvi_2025": 0.436
      },
      "geometry": null
    },
    {
      "type": "Feature",
      "properties": {
        "field_id": "F175",
        "field_name": "Contour Strip",
        "commodity": "Corn",
        "latitude": 41.93,
        "longitude": -93.75,
        "area_acres": 127,
        "mean_ndvi": 0.528,
        "ndvi_2023": 0.536,
        "ndvi_2024": 0.511,
        "ndvi_2025": 0.538
      },
      "geometry": null
    },
    {
      "type": "Feature",
      "properties": {
        "field_id": "F176",
        "field_name": "Windbreak Lane",
        "commodity": "Alfalfa",
        "latitude": 41.79,
        "longitude": -93.62,
        "area_acres": 97,
        "mean_ndvi": 0.659,
        "ndvi_2023": 0.661,
        "ndvi_2024": 0.641,
        "ndvi_2025": 0.675
      },
      "geometry": null
    },
    {
      "type": "Feature",
      "properties": {
        "field_id": "F177",
        "field_name": "Shelter Belt",
        "commodity": "Soybeans",
        "latitude": 41.78,
        "longitude": -93.72,
        "area_acres": 58,
        "mean_ndvi": 0.362,
        "ndvi_2023": 0.337,
        "ndvi_2024": 0.386,
        "ndvi_2025": 0.362
      },
      "geometry": null
    },
    {
      "type": "Feature",
      "properties": {
        "field_id": "F178",
        "field_name": "Hedgerow Field",
        "commodity": "Soybeans",
        "latitude": 41.95,
        "longitude": -93.7,
        "area_acres": 206,
        "mean_ndvi": 0.424,
        "ndvi_2023": 0.431,
        "ndvi_2024": 0.389,
        "ndvi_2025": 0.45
      },
      "geometry": null
    },
    {
      "type": "Feature",
      "properties": {
        "field_id": "F179",
        "field_name": "Pollinator Patch",
        "commodity": "Soybeans",
        "latitude": 41.89,
        "longitude": -93.47,
        "area_acres": 89,
        "mean_ndvi": 0.376,
        "ndvi_2023": 0.367,
        "ndvi_2024": 0.399,
        "ndvi_2025": 0.363
      },
      "geometry": null
    },
    {
      "type": "Feature",
      "properties": {
        "field_id": "F180",
        "field_name": "Wildlife Food Plot",
        "commodity": "Corn",
        "latitude": 41.76,
        "longitude": -93.54,
        "area_acres": 116,
        "mean_ndvi": 0.463,
        "ndvi_2023": 0.456,
        "ndvi_2024": 0.483,
        "ndvi_2025": 0.452
      },
      "geometry": null
    },
    {
      "type": "Feature",
      "properties": {
        "field_id": "F181",
        "field_name": "Native Prairie",
        "commodity": "Alfalfa",
        "latitude": 41.77,
        "longitude": -93.46,
        "area_acres": 53,
        "mean_ndvi": 0.635,
        "ndvi_2023": 0.64,
        "ndvi_2024": 0.629,
        "ndvi_2025": 0.636
      },
      "geometry": null
    },
    {
      "type": "Feature",
      "properties": {
        "field_id": "F182",
        "field_name": "Restored Wetland",
        "commodity": "Corn",
        "latitude": 42.0,
        "longitude": -93.57,
        "area_acres": 157,
        "mean_ndvi": 0.507,
        "ndvi_2023": 0.475,
        "ndvi_2024": 0.503,
        "ndvi_2025": 0.542
      },
      "geometry": null
    },
    {
      "type": "Feature",
      "properties": {
        "field_id": "F183",
        "field_name": "Woodland Edge",
        "commodity": "Corn",
        "latitude": 41.78,
        "longitude": -93.5,
        "area_acres": 180,
        "mean_ndvi": 0.46,
        "ndvi_2023": 0.469,
        "ndvi_2024": 0.469,
        "ndvi_2025": 0.443
      },
      "geometry": null
    },
    {
      "type": "Feature",
      "properties": {
        "field_id": "F184",
        "field_name": "Riparian Zone",
        "commodity": "Soybeans",
        "latitude": 41.94,
        "longitude": -93.55,
        "area_acres": 141,
        "mean_ndvi": 0.425,
        "ndvi_2023": 0.408,
        "ndvi_2024": 0.404,
        "ndvi_2025": 0.465
      },
      "geometry": null
    },
    {
      "type": "Feature",
      "properties": {
        "field_id": "F185",
        "field_name": "Steep Pasture",
        "commodity": "Soybeans",
        "latitude": 41.87,
        "longitude": -93.75,
        "area_acres": 66,
        "mean_ndvi": 0.409,
        "ndvi_2023": 0.427,
        "ndvi_2024": 0.371,
        "ndvi_2025": 0.428
      },
      "geometry": null
    },
    {
      "type": "Feature",
      "properties": {
        "field_id": "F186",
        "field_name": "Gentle Slope",
        "commodity": "Alfalfa",
        "latitude": 41.84,
        "longitude": -93.58,
        "area_acres": 110,
        "mean_ndvi": 0.652,
        "ndvi_2023": 0.608,
        "ndvi_2024": 0.664,
        "ndvi_2025": 0.685
      },
      "geometry": null
    },
    {
      "type": "Feature",
      "properties": {
        "field_id": "F187",
        "field_name": "Level Terrain",
        "commodity": "Alfalfa",
        "latitude": 42.03,
        "longitude": -93.64,
        "area_acres": 168,
        "mean_ndvi": 0.668,
        "ndvi_2023": 0.662,
        "ndvi_2024": 0.673,
        "ndvi_2025": 0.669
      },
      "geometry": null
    },
    {
      "type": "Feature",
      "properties": {
        "field_id": "F188",
        "field_name": "Rolling Upland",
        "commodity": "Corn",
        "latitude": 41.99,
        "longitude": -93.59,
        "area_acres": 226,
        "mean_ndvi": 0.502,
        "ndvi_2023": 0.483,
        "ndvi_2024": 0.516,
        "ndvi_2025": 0.506
      },
      "geometry": null
    },
    {
      "type": "Feature",
      "properties": {
        "field_id": "F189",
        "field_name": "Bottom Floodplain",
        "commodity": "Corn",
        "latitude": 41.78,
        "longitude": -93.69,
        "area_acres": 98,
        "mean_ndvi": 0.472,
        "ndvi_2023": 0.481,
        "ndvi_2024": 0.489,
        "ndvi_2025": 0.446
      },
      "geometry": null
    },
    {
      "type": "Feature",
      "properties": {
        "field_id": "F190",
        "field_name": "Terrace Top",
        "commodity": "Alfalfa",
        "latitude": 41.79,
        "longitude": -93.73,
        "area_acres": 86,
        "mean_ndvi": 0.662,
        "ndvi_2023": 0.697,
        "ndvi_2024": 0.627,
        "ndvi_2025": 0.663
      },
      "geometry": null
    },
    {
      "type": "Feature",
      "properties": {
        "field_id": "F191",
        "field_name": "Hill Shoulder",
        "commodity": "Corn",
        "latitude": 41.94,
        "longitude": -93.56,
        "area_acres": 86,
        "mean_ndvi": 0.518,
        "ndvi_2023": 0.533,
        "ndvi_2024": 0.496,
        "ndvi_2025": 0.526
      },
      "geometry": null
    },
    {
      "type": "Feature",
      "properties": {
        "field_id": "F192",
        "field_name": "Valley Bottom",
        "commodity": "Wheat",
        "latitude": 41.97,
        "longitude": -93.71,
        "area_acres": 122,
        "mean_ndvi": 0.451,
        "ndvi_2023": 0.468,
        "ndvi_2024": 0.411,
        "ndvi_2025": 0.473
      },
      "geometry": null
    },
    {
      "type": "Feature",
      "properties": {
        "field_id": "F193",
        "field_name": "Plateau Field",
        "commodity": "Wheat",
        "latitude": 41.77,
        "longitude": -93.55,
        "area_acres": 132,
        "mean_ndvi": 0.458,
        "ndvi_2023": 0.49,
        "ndvi_2024": 0.434,
        "ndvi_2025": 0.451
      },
      "geometry": null
    },
    {
      "type": "Feature",
      "properties": {
        "field_id": "F194",
        "field_name": "Escarpment Edge",
        "commodity": "Alfalfa",
        "latitude": 41.94,
        "longitude": -93.49,
        "area_acres": 101,
        "mean_ndvi": 0.688,
        "ndvi_2023": 0.697,
        "ndvi_2024": 0.683,
        "ndvi_2025": 0.685
      },
      "geometry": null
    },
    {
      "type": "Feature",
      "properties": {
        "field_id": "F195",
        "field_name": "Draw Meadow",
        "commodity": "Alfalfa",
        "latitude": 41.97,
        "longitude": -93.63,
        "area_acres": 67,
        "mean_ndvi": 0.679,
        "ndvi_2023": 0.653,
        "ndvi_2024": 0.692,
        "ndvi_2025": 0.692
      },
      "geometry": null
    },
    {
      "type": "Feature",
      "properties": {
        "field_id": "F196",
        "field_name": "Seepage Area",
        "commodity": "Wheat",
        "latitude": 41.9,
        "longitude": -93.52,
        "area_acres": 231,
        "mean_ndvi": 0.451,
        "ndvi_2023": 0.438,
        "ndvi_2024": 0.421,
        "ndvi_2025": 0.495
      },
      "geometry": null
    },
    {
      "type": "Feature",
      "properties": {
        "field_id": "F197",
        "field_name": "Spring Fed",
        "commodity": "Alfalfa",
        "latitude": 42.02,
        "longitude": -93.45,
        "area_acres": 188,
        "mean_ndvi": 0.67,
        "ndvi_2023": 0.652,
        "ndvi_2024": 0.692,
        "ndvi_2025": 0.665
      },
      "geometry": null
    },
    {
      "type": "Feature",
      "properties": {
        "field_id": "F198",
        "field_name": "Rainwater Catch",
        "commodity": "Soybeans",
        "latitude": 41.76,
        "longitude": -93.48,
        "area_acres": 173,
        "mean_ndvi": 0.397,
        "ndvi_2023": 0.414,
        "ndvi_2024": 0.38,
        "ndvi_2025": 0.398
      },
      "geometry": null
    },
    {
      "type": "Feature",
      "properties": {
        "field_id": "F199",
        "field_name": "Irrigation Plot",
        "commodity": "Wheat",
        "latitude": 41.96,
        "longitude": -93.73,
        "area_acres": 96,
        "mean_ndvi": 0.437,
        "ndvi_2023": 0.403,
        "ndvi_2024": 0.43,
        "ndvi_2025": 0.476
      },
      "geometry": null
    },
    {
      "type": "Feature",
      "properties": {
        "field_id": "F200",
        "field_name": "Dry Land Acre",
        "commodity": "Wheat",
        "latitude": 41.83,
        "longitude": -93.58,
        "area_acres": 123,
        "mean_ndvi": 0.424,
        "ndvi_2023": 0.447,
        "ndvi_2024": 0.436,
        "ndvi_2025": 0.388
      },
      "geometry": null
    }
  ]
}